NORAD_CAT_ID,OBJECT_NAME,OBJECT_TYPE,EPOCH,MEAN_MOTION,ECCENTRICITY,INCLINATION,RA_OF_ASC_NODE,ARG_OF_PERICENTER,MEAN_ANOMALY,BSTAR,MEAN_MOTION_DOT,MEAN_MOTION_DDOT,TLE_LINE0,TLE_LINE1,TLE_LINE2,SEMIMAJOR_AXIS,PERIOD,APOGEE,PERIGEE,DECAYED
55392.0,STARLINK-5085,PAYLOAD,2023-03-24 09:58:47,15.69975641,0.0003062,70.0006,304.2419,263.8061,96.2786,0.00019904,0.00023838,0.0,0 STARLINK-5085,1 55392U 23014B   23083.41582362  .00023838  00000-0  19904-3 0  9991,2 55392  70.0006 304.2419 0003062 263.8061  96.2786 15.69975641  9267,6737.104,91.721,361.032,356.906,0.0
55392.0,STARLINK-5085,PAYLOAD,2023-03-24 16:05:47,15.69952249,0.000527,69.9976,303.524,293.5779,66.4863,0.00011085,0.00013157,0.0,0 STARLINK-5085,1 55392U 23014B   23083.67069284  .00013157  00000-0  11085-3 0  9997,2 55392  69.9976 303.5240 0005270 293.5779  66.4863 15.69952249  8367,6737.171,91.723,362.586,355.485,0.0
55392.0,STARLINK-5085,PAYLOAD,2023-03-24 20:41:03,15.69921423,0.000363,69.9988,302.9848,275.2637,84.8145,-5.7398e-05,-7.108e-05,0.0,0 STARLINK-5085,1 55392U 23014B   23083.86184716 -.00007108  00000-0 -57398-4 0  9995,2 55392  69.9988 302.9848 0003630 275.2637  84.8145 15.69921423  8395,6737.259,91.724,361.569,356.678,0.0
55392.0,STARLINK-5085,PAYLOAD,2023-03-24 22:12:48,15.69921865,0.0003663,69.9984,302.8054,275.5745,84.5033,-5.7124e-05,-7.076e-05,0.0,0 STARLINK-5085,1 55392U 23014B   23083.92556318 -.00007076  00000-0 -57124-4 0  9994,2 55392  69.9984 302.8054 0003663 275.5745  84.5033 15.69921865  9347,6737.258,91.724,361.59,356.655,0.0
55392.0,STARLINK-5085,PAYLOAD,2023-03-25 01:16:20,15.69878904,0.0003118,69.9984,302.45,286.5012,73.5841,-0.00021683,-0.00026154,0.0,0 STARLINK-5085,1 55392U 23014B   23084.05301044 -.00026154  00000-0 -21683-3 0  9991,2 55392  69.9984 302.4500 0003118 286.5012  73.5841 15.69878904  8421,6737.38,91.727,361.346,357.145,0.0
55392.0,STARLINK-5085,PAYLOAD,2023-03-25 21:09:06,15.69929743,0.0003271,69.9982,300.1209,279.7394,80.3432,0.00011305,0.00013405,0.0,0 STARLINK-5085,1 55392U 23014B   23084.88132997  .00013405  00000-0  11305-3 0  9994,2 55392  69.9982 300.1209 0003271 279.7394  80.3432 15.69929743  8551,6737.235,91.724,361.304,356.896,0.0
55392.0,STARLINK-5085,PAYLOAD,2023-03-25 22:40:52,15.69933932,0.0003152,69.9987,299.9402,283.9995,76.085,0.00026368,0.00031624,0.0,0 STARLINK-5085,1 55392U 23014B   23084.94504894  .00031624  00000-0  26368-3 0  9998,2 55392  69.9987 299.9402 0003152 283.9995  76.0850 15.69933932  9505,6737.223,91.724,361.212,356.964,0.0
55392.0,STARLINK-5085,PAYLOAD,2023-03-26 01:44:21,15.69956764,0.0003171,69.9984,299.5828,280.3008,79.783,0.00032843,0.00039517,0.0,0 STARLINK-5085,1 55392U 23014B   23085.07247662  .00039517  00000-0  32843-3 0  9994,2 55392  69.9984 299.5828 0003171 280.3008  79.7830 15.69956764  8580,6737.158,91.722,361.159,356.886,0.0
55392.0,STARLINK-5085,PAYLOAD,2023-03-26 17:01:52,15.69951942,0.0003175,69.9986,297.7918,278.3,81.7836,3.8729e-05,4.452e-05,0.0,0 STARLINK-5085,1 55392U 23014B   23085.70963577  .00004452  00000-0  38729-4 0  9994,2 55392  69.9986 297.7918 0003175 278.3000  81.7836 15.69951942  8688,6737.171,91.723,361.176,356.897,0.0
55392.0,STARLINK-5085,PAYLOAD,2023-03-26 21:37:07,15.69956513,0.0003075,69.9997,297.2544,279.9669,80.1179,4.415e-05,5.106e-05,0.0,0 STARLINK-5085,1 55392U 23014B   23085.90078188  .00005106  00000-0  44150-4 0  9993,2 55392  69.9997 297.2544 0003075 279.9669  80.1179 15.69956513  9657,6737.158,91.722,361.095,356.952,0.0
55392.0,STARLINK-5085,PAYLOAD,2023-03-27 14:26:23,15.69930673,0.0003196,69.9988,295.2828,276.1044,83.9787,8.6709e-06,8.3e-06,0.0,0 STARLINK-5085,1 55392U 23014B   23086.60166609  .00000830  00000-0  86709-5 0  9993,2 55392  69.9988 295.2828 0003196 276.1044  83.9787 15.69930673  9767,6737.232,91.724,361.251,356.944,0.0
55392.0,STARLINK-5085,PAYLOAD,2023-03-27 20:33:24,15.69931327,0.0003721,69.9988,294.566,273.7501,86.3269,5.5808e-06,4.58e-06,0.0,0 STARLINK-5085,1 55392U 23014B   23086.85653171  .00000458  00000-0  55808-5 0  9997,2 55392  69.9988 294.5660 0003721 273.7501  86.3269 15.69931327  8867,6737.23,91.724,361.602,356.589,0.0
55392.0,STARLINK-5085,PAYLOAD,2023-03-27 22:05:09,15.69932902,0.0003532,69.9989,294.387,271.9453,88.1338,1.8011e-05,1.954e-05,0.0,0 STARLINK-5085,1 55392U 23014B   23086.92024836  .00001954  00000-0  18011-4 0  9991,2 55392  69.9989 294.3870 0003532 271.9453  88.1338 15.69932902  9818,6737.226,91.724,361.471,356.711,0.0
55392.0,STARLINK-5085,PAYLOAD,2023-03-27 23:36:54,15.69930941,0.000342,69.999,294.2081,270.3867,89.6937,2.3091e-05,2.565e-05,0.0,0 STARLINK-5085,1 55392U 23014B   23086.98396548  .00002565  00000-0  23091-4 0  9992,2 55392  69.9990 294.2081 0003420 270.3867  89.6937 15.69930941  9824,6737.232,91.724,361.401,356.792,0.0
55392.0,STARLINK-5085,PAYLOAD,2023-03-28 21:01:26,15.69937119,0.0003142,70.0002,291.7002,269.753,90.3305,5.3267e-05,6.2e-05,0.0,0 STARLINK-5085,1 55392U 23014B   23087.87599691  .00006200  00000-0  53267-4 0  9993,2 55392  70.0002 291.7002 0003142 269.7530  90.3305 15.69937119  9020,6737.214,91.723,361.196,356.962,0.0
55392.0,STARLINK-5085,PAYLOAD,2023-03-29 12:18:57,15.69927419,0.0002198,70.0008,289.9089,267.4011,92.6933,2.7113e-05,3.049e-05,0.0,0 STARLINK-5085,1 55392U 23014B   23088.51316721  .00003049  00000-0  27113-4 0  9995,2 55392  70.0008 289.9089 0002198 267.4011  92.6933 15.69927419 10069,6737.242,91.724,360.587,357.626,0.0
55392.0,STARLINK-5085,PAYLOAD,2023-03-29 19:57:43,15.69938846,0.0003723,69.9994,289.0129,266.6724,93.4046,5.986e-05,6.996e-05,0.0,0 STARLINK-5085,1 55392U 23014B   23088.83174833  .00006996  00000-0  59860-4 0  9994,2 55392  69.9994 289.0129 0003723 266.6724  93.4046 15.69938846  9173,6737.209,91.723,361.582,356.566,0.0
55392.0,STARLINK-5085,PAYLOAD,2023-03-29 23:01:14,15.69910635,0.0002841,69.9998,288.6549,266.1051,93.982,-3.2246e-05,-4.085e-05,0.0,0 STARLINK-5085,1 55392U 23014B   23088.95919046 -.00004085  00000-0 -32246-4 0  9998,2 55392  69.9998 288.6549 0002841 266.1051  93.9820 15.69910635  9199,6737.29,91.725,361.069,357.241,0.0
55392.0,STARLINK-5085,PAYLOAD,2023-03-30 06:39:59,15.6992162,0.0003304,69.9985,287.7572,270.5622,89.5195,6.9366e-06,6.21e-06,0.0,0 STARLINK-5085,1 55392U 23014B   23089.27777062  .00000621  00000-0  69366-5 0  9998,2 55392  69.9985 287.7572 0003304 270.5622  89.5195 15.69921620  9247,6737.258,91.724,361.349,356.897,0.0
55392.0,STARLINK-5085,PAYLOAD,2023-03-30 15:50:29,15.69927471,0.0003669,70.0,286.6842,270.1995,89.878,2.2591e-05,2.505e-05,0.0,0 STARLINK-5085,1 55392U 23014B   23089.66006718  .00002505  00000-0  22591-4 0  9995,2 55392  70.0000 286.6842 0003669 270.1995  89.8780 15.69927471 10244,6737.242,91.724,361.578,356.635,0.0
55392.0,STARLINK-5085,PAYLOAD,2023-03-30 23:29:15,15.69934837,0.0003477,70.0001,285.7877,268.9736,91.1062,4.7723e-05,5.532e-05,0.0,0 STARLINK-5085,1 55392U 23014B   23089.97865007  .00005532  00000-0  47723-4 0  9990,2 55392  70.0001 285.7877 0003477 268.9736  91.1062 15.69934837  9351,6737.22,91.724,361.428,356.743,0.0
55392.0,STARLINK-5085,PAYLOAD,2023-03-31 11:43:16,15.69929179,0.0002854,70.0006,284.355,255.9311,104.1568,3.5238e-05,4.027e-05,0.0,0 STARLINK-5085,1 55392U 23014B   23090.48838653  .00004027  00000-0  35238-4 0  9991,2 55392  70.0006 284.3550 0002854 255.9311 104.1568 15.69929179  9430,6737.237,91.724,361.024,357.179,0.0
55392.0,STARLINK-5085,PAYLOAD,2023-04-01 13:43:04,15.69923276,0.0003513,69.9971,281.3072,272.3704,87.7089,1.3055e-05,1.357e-05,0.0,0 STARLINK-5085,1 55392U 23014B   23091.57157440  .00001357  00000-0  13055-4 0  9996,2 55392  69.9971 281.3072 0003513 272.3704  87.7089 15.69923276 10546,6737.254,91.724,361.485,356.752,0.0
55392.0,STARLINK-5085,PAYLOAD,2023-04-01 16:46:33,15.69951172,0.0003717,69.998,280.9508,270.2893,89.7877,0.00010862,0.00012883,0.0,0 STARLINK-5085,1 55392U 23014B   23091.69900102  .00012883  00000-0  10862-3 0  9998,2 55392  69.9980 280.9508 0003717 270.2893  89.7877 15.69951172  9627,6737.174,91.723,361.543,356.534,0.0
55392.0,STARLINK-5085,PAYLOAD,2023-04-01 21:21:48,15.69965401,0.0004034,69.9976,280.413,271.0804,88.993,0.00013967,0.00016645,0.0,0 STARLINK-5085,1 55392U 23014B   23091.89014390  .00016645  00000-0  13967-3 0  9994,2 55392  69.9976 280.4130 0004034 271.0804  88.9930 15.69965401  9656,6737.133,91.722,361.716,356.28,0.0
55392.0,STARLINK-5085,PAYLOAD,2023-04-02 14:11:05,15.69918265,0.0004135,69.9976,278.4389,284.3512,75.7224,-9.4195e-06,-1.346e-05,0.0,0 STARLINK-5085,1 55392U 23014B   23092.59104015 -.00001346  00000-0 -94195-5 0  9994,2 55392  69.9976 278.4389 0004135 284.3512  75.7224 15.69918265 10708,6737.268,91.725,361.919,356.347,0.0
55392.0,STARLINK-5085,PAYLOAD,2023-04-02 20:18:06,15.69924609,0.0003742,69.9988,277.7256,272.0343,88.0424,2.6139e-06,1.01e-06,0.0,0 STARLINK-5085,1 55392U 23014B   23092.84590507  .00000101  00000-0  26139-5 0  9996,2 55392  69.9988 277.7256 0003742 272.0343  88.0424 15.69924609  9802,6737.25,91.724,361.636,356.594,0.0
55392.0,STARLINK-5085,PAYLOAD,2023-04-02 21:49:51,15.6992624,0.0003743,69.9988,277.5465,272.7928,87.2839,1.1133e-05,1.126e-05,0.0,0 STARLINK-5085,1 55392U 23014B   23092.90962149  .00001126  00000-0  11133-4 0  9993,2 55392  69.9988 277.5465 0003743 272.7928  87.2839 15.69926240 10759,6737.245,91.724,361.632,356.588,0.0
55392.0,STARLINK-5085,PAYLOAD,2023-04-03 11:35:38,15.69912685,0.0003512,69.998,275.9341,272.8246,87.2548,2.0127e-06,2.9e-07,0.0,0 STARLINK-5085,1 55392U 23014B   23093.48307962  .00000029  00000-0  20127-5 0  9998,2 55392  69.9980 275.9341 0003512 272.8246  87.2548 15.69912685  9904,6737.284,91.725,361.515,356.783,0.0
55392.0,STARLINK-5085,PAYLOAD,2023-04-03 16:10:53,15.69927321,0.0003036,69.9977,275.398,289.7663,70.3205,2.977e-05,3.369e-05,0.0,0 STARLINK-5085,1 55392U 23014B   23093.67422930  .00003369  00000-0  29770-4 0  9994,2 55392  69.9977 275.3980 0003036 289.7663  70.3205 15.69927321  9933,6737.242,91.724,361.152,357.062,0.0
